{"type": "FeatureCollection", "features": [ {"type": "Feature", "properties": {"norad_id": 39109, "name": "COSMOS 2251 DEB", "group": "cosmos-2251-debris", "lat": 73.98400328021744, "lon": -56.29171831499926, "alt_km": 676.75131509932, "timestamp": "2025-12-16T05:49:09.611434+00:00", "meta": {"OBJECT_NAME": "COSMOS 2251 DEB", "OBJECT_ID": "1993-036BTY", "EPOCH": "2025-12-09T10:58:18.988608", "MEAN_MOTION": 14.70683686, "ECCENTRICITY": 0.00592583, "INCLINATION": 74.0426, "RA_OF_ASC_NODE": 231.4464, "ARG_OF_PERICENTER": 335.6145, "MEAN_ANOMALY": 202.0339, "EPHEMERIS_TYPE": 0, "CLASSIFICATION_TYPE": "U", "NORAD_CAT_ID": 39109, "ELEMENT_SET_NO": 999, "REV_AT_EPOCH": 65125, "BSTAR": 0.00089315049, "MEAN_MOTION_DOT": 5.561e-05, "MEAN_MOTION_DDOT": 0}, "tle": {"line1": "1 39109U 93036BTY 25343.45716422  .00005561  00000+0  89315-3 0  9996", "line2": "2 39109  74.0426 231.4464 0059258 335.6145 202.0339 14.70683686651254"}}, "geometry": {"type": "Point", "coordinates": [-56.29171831499926, 73.98400328021744]}}, {"type": "Feature", "properties": {"norad_id": 39110, "name": "COSMOS 2251 DEB", "group": "cosmos-2251-debris", "lat": -64.72451600036156, "lon": 17.12520127375897, "alt_km": 592.8966181226915, "timestamp": "2025-12-16T05:49:09.611444+00:00", "meta": {"OBJECT_NAME": "COSMOS 2251 DEB", "OBJECT_ID": "1993-036BTZ", "EPOCH": "2025-12-03T13:14:13.055136", "MEAN_MOTION": 14.72215365, "ECCENTRICITY": 0.00964609, "INCLINATION": 73.9598, "RA_OF_ASC_NODE": 79.4668, "ARG_OF_PERICENTER": 313.6965, "MEAN_ANOMALY": 59.6182, "EPHEMERIS_TYPE": 0, "CLASSIFICATION_TYPE": "U", "NORAD_CAT_ID": 39110, "ELEMENT_SET_NO": 999, "REV_AT_EPOCH": 62349, "BSTAR": 0.00066560445, "MEAN_MOTION_DOT": 4.484e-05, "MEAN_MOTION_DDOT": 0}, "tle": {"line1": "1 39110U 93036BTZ 25337.55153999  .00004484  00000+0  66560-3 0  9996", "line2": "2 39110  73.9598  79.4668 0096460 313.6965  59.6182 14.72215365623496"}}, "geometry": {"type": "Point", "coordinates": [17.12520127375897, -64.72451600036156]}}, {"type": "Feature", "properties": {"norad_id": 39111, "name": "COSMOS 2251 DEB", "group": "cosmos-2251-debris", "lat": 29.503134371385975, "lon": 43.19695594447884, "alt_km": 513.1413921694302, "timestamp": "2025-12-16T05:49:09.611454+00:00", "meta": {"OBJECT_NAME": "COSMOS 2251 DEB", "OBJECT_ID": "1993-036BUA", "EPOCH": "2025-12-01T22:58:55.551360", "MEAN_MOTION": 15.11912111, "ECCENTRICITY": 0.00109111, "INCLINATION": 74.0059, "RA_OF_ASC_NODE": 63.5328, "ARG_OF_PERICENTER": 39.1207, "MEAN_ANOMALY": 321.0773, "EPHEMERIS_TYPE": 0, "CLASSIFICATION_TYPE": "U", "NORAD_CAT_ID": 39111, "ELEMENT_SET_NO": 999, "REV_AT_EPOCH": 8982, "BSTAR": 0.0056424119, "MEAN_MOTION_DOT": 0.00098096, "MEAN_MOTION_DDOT": 0}, "tle": {"line1": "1 39111U 93036BUA 25335.95758740  .00098096  00000+0  56424-2 0  9993", "line2": "2 39111  74.0059  63.5328 0010911  39.1207 321.0773 15.11912111 89826"}}, "geometry": {"type": "Point", "coordinates": [43.19695594447884, 29.503134371385975]}}, {"type": "Feature", "properties": {"norad_id": 39546, "name": "COSMOS 2251 DEB", "group": "cosmos-2251-debris", "lat": -41.511961280631, "lon": -35.540061653866566, "alt_km": 584.7644506600609, "timestamp": "2025-12-16T05:49:09.611464+00:00", "meta": {"OBJECT_NAME": "COSMOS 2251 DEB", "OBJECT_ID": "1993-036BUC", "EPOCH": "2025-12-15T17:33:10.766304", "MEAN_MOTION": 14.92140211, "ECCENTRICITY": 0.00441017, "INCLINATION": 73.9968, "RA_OF_ASC_NODE": 130.7723, "ARG_OF_PERICENTER": 290.4488, "MEAN_ANOMALY": 69.1962, "EPHEMERIS_TYPE": 0, "CLASSIFICATION_TYPE": "U", "NORAD_CAT_ID": 39546, "ELEMENT_SET_NO": 999, "REV_AT_EPOCH": 64481, "BSTAR": 0.00093842997, "MEAN_MOTION_DOT": 9.702e-05, "MEAN_MOTION_DDOT": 0}, "tle": {"line1": "1 39546U 93036BUC 25349.73137461  .00009702  00000+0  93843-3 0  9990", "line2": "2 39546  73.9968 130.7723 0044101 290.4488  69.1962 14.92140211644810"}}, "geometry": {"type": "Point", "coordinates": [-35.540061653866566, -41.511961280631]}}, {"type": "Feature", "properties": {"norad_id": 39547, "name": "COSMOS 2251 DEB", "group": "cosmos-2251-debris", "lat": -1.6824673656323261, "lon": 10.728811356542844, "alt_km": 554.3876000535174, "timestamp": "2025-12-16T05:49:09.611474+00:00", "meta": {"OBJECT_NAME": "COSMOS 2251 DEB", "OBJECT_ID": "1993-036BUD", "EPOCH": "2025-12-11T09:19:23.142720", "MEAN_MOTION": 15.03149488, "ECCENTRICITY": 0.00052092, "INCLINATION": 74.0018, "RA_OF_ASC_NODE": 21.1464, "ARG_OF_PERICENTER": 16.2917, "MEAN_ANOMALY": 0.6798, "EPHEMERIS_TYPE": 0, "CLASSIFICATION_TYPE": "U", "NORAD_CAT_ID": 39547, "ELEMENT_SET_NO": 999, "REV_AT_EPOCH": 64005, "BSTAR": 0.0051209995, "MEAN_MOTION_DOT": 0.00069871, "MEAN_MOTION_DDOT": 0}, "tle": {"line1": "1 39547U 93036BUD 25345.38846230  .00069871  00000+0  51210-2 0  9993", "line2": "2 39547  74.0018  21.1464 0005209  16.2917   0.6798 15.03149488640058"}}, "geometry": {"type": "Point", "coordinates": [10.728811356542844, -1.6824673656323261]}}, {"type": "Feature", "properties": {"norad_id": 39553, "name": "COSMOS 2251 DEB", "group": "cosmos-2251-debris", "lat": -56.988504312207894, "lon": -62.1954642773037, "alt_km": 1037.9923524711603, "timestamp": "2025-12-16T05:49:09.611484+00:00", "meta": {"OBJECT_NAME": "COSMOS 2251 DEB", "OBJECT_ID": "1993-036BUK", "EPOCH": "2025-12-07T06:00:50.455872", "MEAN_MOTION": 13.99876591, "ECCENTRICITY": 0.02014092, "INCLINATION": 74.0304, "RA_OF_ASC_NODE": 339.5232, "ARG_OF_PERICENTER": 116.8065, "MEAN_ANOMALY": 245.3825, "EPHEMERIS_TYPE": 0, "CLASSIFICATION_TYPE": "U", "NORAD_CAT_ID": 39553, "ELEMENT_SET_NO": 999, "REV_AT_EPOCH": 75540, "BSTAR": 0.00088887208, "MEAN_MOTION_DOT": 1.532e-05, "MEAN_MOTION_DDOT": 0}, "tle": {"line1": "1 39553U 93036BUK 25341.25058398  .00001532  00000+0  88887-3 0  9993", "line2": "2 39553  74.0304 339.5232 0201409 116.8065 245.3825 13.99876591755403"}}, "geometry": {"type": "Point", "coordinates": [-62.1954642773037, -56.988504312207894]}}, {"type": "Feature", "properties": {"norad_id": 39554, "name": "COSMOS 2251 DEB", "group": "cosmos-2251-debris", "lat": -68.45841403786642, "lon": -149.18460360707707, "alt_km": 541.4068013717288, "timestamp": "2025-12-16T05:49:09.611494+00:00", "meta": {"OBJECT_NAME": "COSMOS 2251 DEB", "OBJECT_ID": "1993-036BUL", "EPOCH": "2025-12-10T06:12:03.924864", "MEAN_MOTION": 15.10130993, "ECCENTRICITY": 0.0002993, "INCLINATION": 74.0187, "RA_OF_ASC_NODE": 269.7383, "ARG_OF_PERICENTER": 74.7531, "MEAN_ANOMALY": 81.5927, "EPHEMERIS_TYPE": 0, "CLASSIFICATION_TYPE": "U", "NORAD_CAT_ID": 39554, "ELEMENT_SET_NO": 999, "REV_AT_EPOCH": 64347, "BSTAR": 0.0046896, "MEAN_MOTION_DOT": 0.000773, "MEAN_MOTION_DDOT": 0}, "tle": {"line1": "1 39554U 93036BUL 25344.25837876  .00077300  00000+0  46896-2 0  9992", "line2": "2 39554  74.0187 269.7383 0002993  74.7531  81.5927 15.10130993643471"}}, "geometry": {"type": "Point", "coordinates": [-149.18460360707707, -68.45841403786642]}}, {"type": "Feature", "properties": {"norad_id": 39583, "name": "COSMOS 2251 DEB", "group": "cosmos-2251-debris", "lat": 50.19528284187076, "lon": -99.27291928449485, "alt_km": 637.1856290254991, "timestamp": "2025-12-16T05:49:09.611504+00:00", "meta": {"OBJECT_NAME": "COSMOS 2251 DEB", "OBJECT_ID": "1993-036BUN", "EPOCH": "2025-12-15T23:00:24.529536", "MEAN_MOTION": 14.60504364, "ECCENTRICITY": 0.01368678, "INCLINATION": 73.9322, "RA_OF_ASC_NODE": 241.0376, "ARG_OF_PERICENTER": 353.7759, "MEAN_ANOMALY": 6.1698, "EPHEMERIS_TYPE": 0, "CLASSIFICATION_TYPE": "U", "NORAD_CAT_ID": 39583, "ELEMENT_SET_NO": 999, "REV_AT_EPOCH": 61826, "BSTAR": 0.0011877735, "MEAN_MOTION_DOT": 6.55e-05, "MEAN_MOTION_DDOT": 0}, "tle": {"line1": "1 39583U 93036BUN 25349.95861724  .00006550  00000+0  11878-2 0  9996", "line2": "2 39583  73.9322 241.0376 0136867 353.7759   6.1698 14.60504364618265"}}, "geometry": {"type": "Point", "coordinates": [-99.27291928449485, 50.19528284187076]}}, {"type": "Feature", "properties": {"norad_id": 39585, "name": "COSMOS 2251 DEB", "group": "cosmos-2251-debris", "lat": -33.04579301856149, "lon": 125.37889561750175, "alt_km": 746.7511088672827, "timestamp": "2025-12-16T05:49:09.611514+00:00", "meta": {"OBJECT_NAME": "COSMOS 2251 DEB", "OBJECT_ID": "1993-036BUQ", "EPOCH": "2025-12-14T03:27:48.164544", "MEAN_MOTION": 14.5867271, "ECCENTRICITY": 0.00655931, "INCLINATION": 74.0424, "RA_OF_ASC_NODE": 298.6434, "ARG_OF_PERICENTER": 59.1971, "MEAN_ANOMALY": 301.5627, "EPHEMERIS_TYPE": 0, "CLASSIFICATION_TYPE": "U", "NORAD_CAT_ID": 39585, "ELEMENT_SET_NO": 999, "REV_AT_EPOCH": 62541, "BSTAR": 0.00040250434, "MEAN_MOTION_DOT": 1.903e-05, "MEAN_MOTION_DDOT": 0}, "tle": {"line1": "1 39585U 93036BUQ 25348.14430746  .00001903  00000+0  40250-3 0  9998", "line2": "2 39585  74.0424 298.6434 0065593  59.1971 301.5627 14.58672710625412"}}, "geometry": {"type": "Point", "coordinates": [125.37889561750175, -33.04579301856149]}}, {"type": "Feature", "properties": {"norad_id": 39586, "name": "COSMOS 2251 DEB", "group": "cosmos-2251-debris", "lat": -69.12079658794421, "lon": 90.70462418819477, "alt_km": 839.2730216135769, "timestamp": "2025-12-16T05:49:09.611524+00:00", "meta": {"OBJECT_NAME": "COSMOS 2251 DEB", "OBJECT_ID": "1993-036BUR", "EPOCH": "2025-12-11T10:34:49.908288", "MEAN_MOTION": 14.21221392, "ECCENTRICITY": 0.01007513, "INCLINATION": 74.009, "RA_OF_ASC_NODE": 230.5784, "ARG_OF_PERICENTER": 5.5344, "MEAN_ANOMALY": 174.6065, "EPHEMERIS_TYPE": 0, "CLASSIFICATION_TYPE": "U", "NORAD_CAT_ID": 39586, "ELEMENT_SET_NO": 999, "REV_AT_EPOCH": 60953, "BSTAR": 0.00065665467, "MEAN_MOTION_DOT": 1.479e-05, "MEAN_MOTION_DDOT": 0}, "tle": {"line1": "1 39586U 93036BUR 25345.44085542  .00001479  00000+0  65665-3 0  9994", "line2": "2 39586  74.0090 230.5784 0100751   5.5344 174.6065 14.21221392609536"}}, "geometry": {"type": "Point", "coordinates": [90.70462418819477, -69.12079658794421]}}]}